{"type": "FeatureCollection", "features": [ {"type": "Feature", "properties": {"norad_id": 66850, "name": "STARLINK-36105", "group": "last-30-days", "lat": 12.34853474656523, "lon": 44.13316608459961, "alt_km": 413.3074235953518, "timestamp": "2025-12-27T23:26:36.073676+00:00", "meta": {"OBJECT_NAME": "STARLINK-36105", "OBJECT_ID": "2025-281C", "EPOCH": "2025-12-27T12:00:02.000160", "MEAN_MOTION": 15.50547436, "ECCENTRICITY": 9.36e-05, "INCLINATION": 43.0004, "RA_OF_ASC_NODE": 33.335, "ARG_OF_PERICENTER": 265.2432, "MEAN_ANOMALY": 328.5109, "EPHEMERIS_TYPE": 0, "CLASSIFICATION_TYPE": "U", "NORAD_CAT_ID": 66850, "ELEMENT_SET_NO": 999, "REV_AT_EPOCH": 375, "BSTAR": 0.00037009, "MEAN_MOTION_DOT": 0.00021404, "MEAN_MOTION_DDOT": 0}, "tle": {"line1": "1 66850U 25281C   25361.50002315  .00021404  00000+0  37009-3 0  9998", "line2": "2 66850  43.0004  33.3350 0000936 265.2432 328.5109 15.50547436  3750"}}, "geometry": {"type": "Point", "coordinates": [44.13316608459961, 12.34853474656523]}}, {"type": "Feature", "properties": {"norad_id": 66851, "name": "STARLINK-36094", "group": "last-30-days", "lat": 13.615897374659168, "lon": 45.60616879638854, "alt_km": 413.1819025405139, "timestamp": "2025-12-27T23:26:36.073686+00:00", "meta": {"OBJECT_NAME": "STARLINK-36094", "OBJECT_ID": "2025-281D", "EPOCH": "2025-12-27T12:00:02.000160", "MEAN_MOTION": 15.50556861, "ECCENTRICITY": 9.81e-05, "INCLINATION": 43.0004, "RA_OF_ASC_NODE": 33.3296, "ARG_OF_PERICENTER": 264.4739, "MEAN_ANOMALY": 331.197, "EPHEMERIS_TYPE": 0, "CLASSIFICATION_TYPE": "U", "NORAD_CAT_ID": 66851, "ELEMENT_SET_NO": 999, "REV_AT_EPOCH": 375, "BSTAR": 4.2001e-05, "MEAN_MOTION_DOT": 2.121e-05, "MEAN_MOTION_DDOT": 0}, "tle": {"line1": "1 66851U 25281D   25361.50002315  .00002121  00000+0  42001-4 0  9993", "line2": "2 66851  43.0004  33.3296 0000981 264.4739 331.1970 15.50556861  3759"}}, "geometry": {"type": "Point", "coordinates": [45.60616879638854, 13.615897374659168]}}, {"type": "Feature", "properties": {"norad_id": 66852, "name": "STARLINK-35992", "group": "last-30-days", "lat": 14.87070713515085, "lon": 47.091698240556994, "alt_km": 412.6212180306302, "timestamp": "2025-12-27T23:26:36.073710+00:00", "meta": {"OBJECT_NAME": "STARLINK-35992", "OBJECT_ID": "2025-281E", "EPOCH": "2025-12-27T12:00:02.000160", "MEAN_MOTION": 15.50571439, "ECCENTRICITY": 4.68e-05, "INCLINATION": 43.0005, "RA_OF_ASC_NODE": 33.3254, "ARG_OF_PERICENTER": 312.4267, "MEAN_ANOMALY": 285.1534, "EPHEMERIS_TYPE": 0, "CLASSIFICATION_TYPE": "U", "NORAD_CAT_ID": 66852, "ELEMENT_SET_NO": 999, "REV_AT_EPOCH": 375, "BSTAR": -0.00031386, "MEAN_MOTION_DOT": -0.00018703, "MEAN_MOTION_DDOT": 0}, "tle": {"line1": "1 66852U 25281E   25361.50002315 -.00018703  00000+0 -31386-3 0  9992", "line2": "2 66852  43.0005  33.3254 0000468 312.4267 285.1534 15.50571439  3757"}}, "geometry": {"type": "Point", "coordinates": [47.091698240556994, 14.87070713515085]}}, {"type": "Feature", "properties": {"norad_id": 66853, "name": "STARLINK-35986", "group": "last-30-days", "lat": 16.119353103834463, "lon": 48.598367605587526, "alt_km": 412.4946905221195, "timestamp": "2025-12-27T23:26:36.073722+00:00", "meta": {"OBJECT_NAME": "STARLINK-35986", "OBJECT_ID": "2025-281F", "EPOCH": "2025-12-27T12:00:02.000160", "MEAN_MOTION": 15.50572982, "ECCENTRICITY": 3.99e-05, "INCLINATION": 43.0004, "RA_OF_ASC_NODE": 33.3205, "ARG_OF_PERICENTER": 304.4806, "MEAN_ANOMALY": 295.0169, "EPHEMERIS_TYPE": 0, "CLASSIFICATION_TYPE": "U", "NORAD_CAT_ID": 66853, "ELEMENT_SET_NO": 999, "REV_AT_EPOCH": 375, "BSTAR": -0.0003627, "MEAN_MOTION_DOT": -0.00021554, "MEAN_MOTION_DDOT": 0}, "tle": {"line1": "1 66853U 25281F   25361.50002315 -.00021554  00000+0 -36270-3 0  9998", "line2": "2 66853  43.0004  33.3205 0000399 304.4806 295.0169 15.50572982  3754"}}, "geometry": {"type": "Point", "coordinates": [48.598367605587526, 16.119353103834463]}}, {"type": "Feature", "properties": {"norad_id": 66854, "name": "STARLINK-36087", "group": "last-30-days", "lat": 17.357282762657878, "lon": 50.12391682894393, "alt_km": 412.2870597935389, "timestamp": "2025-12-27T23:26:36.073732+00:00", "meta": {"OBJECT_NAME": "STARLINK-36087", "OBJECT_ID": "2025-281G", "EPOCH": "2025-12-27T12:00:02.000160", "MEAN_MOTION": 15.50581033, "ECCENTRICITY": 3.89e-05, "INCLINATION": 43.0004, "RA_OF_ASC_NODE": 33.3154, "ARG_OF_PERICENTER": 311.8417, "MEAN_ANOMALY": 289.569, "EPHEMERIS_TYPE": 0, "CLASSIFICATION_TYPE": "U", "NORAD_CAT_ID": 66854, "ELEMENT_SET_NO": 999, "REV_AT_EPOCH": 375, "BSTAR": -0.00056308, "MEAN_MOTION_DOT": -0.00033234, "MEAN_MOTION_DDOT": 0}, "tle": {"line1": "1 66854U 25281G   25361.50002315 -.00033234  00000+0 -56308-3 0  9991", "line2": "2 66854  43.0004  33.3154 0000389 311.8417 289.5690 15.50581033  3751"}}, "geometry": {"type": "Point", "coordinates": [50.12391682894393, 17.357282762657878]}}, {"type": "Feature", "properties": {"norad_id": 66855, "name": "STARLINK-36090", "group": "last-30-days", "lat": 18.58156320746248, "lon": 51.668121154672974, "alt_km": 412.08473859993046, "timestamp": "2025-12-27T23:26:36.073744+00:00", "meta": {"OBJECT_NAME": "STARLINK-36090", "OBJECT_ID": "2025-281H", "EPOCH": "2025-12-27T12:00:02.000160", "MEAN_MOTION": 15.50589143, "ECCENTRICITY": 4.29e-05, "INCLINATION": 43.0004, "RA_OF_ASC_NODE": 33.3106, "ARG_OF_PERICENTER": 317.6963, "MEAN_ANOMALY": 285.627, "EPHEMERIS_TYPE": 0, "CLASSIFICATION_TYPE": "U", "NORAD_CAT_ID": 66855, "ELEMENT_SET_NO": 999, "REV_AT_EPOCH": 363, "BSTAR": -0.0008265, "MEAN_MOTION_DOT": -0.00048543, "MEAN_MOTION_DDOT": 0}, "tle": {"line1": "1 66855U 25281H   25361.50002315 -.00048543  00000+0 -82650-3 0  9990", "line2": "2 66855  43.0004  33.3106 0000429 317.6963 285.6270 15.50589143  3632"}}, "geometry": {"type": "Point", "coordinates": [51.668121154672974, 18.58156320746248]}}, {"type": "Feature", "properties": {"norad_id": 66856, "name": "STARLINK-36072", "group": "last-30-days", "lat": 19.800113794567157, "lon": 53.243383190855745, "alt_km": 412.17961847622155, "timestamp": "2025-12-27T23:26:36.073754+00:00", "meta": {"OBJECT_NAME": "STARLINK-36072", "OBJECT_ID": "2025-281J", "EPOCH": "2025-12-27T12:00:02.000160", "MEAN_MOTION": 15.50559311, "ECCENTRICITY": 9.49e-05, "INCLINATION": 43.0004, "RA_OF_ASC_NODE": 33.3052, "ARG_OF_PERICENTER": 276.4502, "MEAN_ANOMALY": 328.8034, "EPHEMERIS_TYPE": 0, "CLASSIFICATION_TYPE": "U", "NORAD_CAT_ID": 66856, "ELEMENT_SET_NO": 999, "REV_AT_EPOCH": 375, "BSTAR": 2.5295e-05, "MEAN_MOTION_DOT": 1.142e-05, "MEAN_MOTION_DDOT": 0}, "tle": {"line1": "1 66856U 25281J   25361.50002315  .00001142  00000+0  25295-4 0  9996", "line2": "2 66856  43.0004  33.3052 0000949 276.4502 328.8034 15.50559311  3756"}}, "geometry": {"type": "Point", "coordinates": [53.243383190855745, 19.800113794567157]}}, {"type": "Feature", "properties": {"norad_id": 66857, "name": "STARLINK-36083", "group": "last-30-days", "lat": 21.001632432054233, "lon": 54.83983823112835, "alt_km": 411.9859594355612, "timestamp": "2025-12-27T23:26:36.073764+00:00", "meta": {"OBJECT_NAME": "STARLINK-36083", "OBJECT_ID": "2025-281K", "EPOCH": "2025-12-27T12:00:02.000160", "MEAN_MOTION": 15.50548981, "ECCENTRICITY": 0.0001039, "INCLINATION": 43.0005, "RA_OF_ASC_NODE": 33.3008, "ARG_OF_PERICENTER": 277.9766, "MEAN_ANOMALY": 329.1974, "EPHEMERIS_TYPE": 0, "CLASSIFICATION_TYPE": "U", "NORAD_CAT_ID": 66857, "ELEMENT_SET_NO": 999, "REV_AT_EPOCH": 375, "BSTAR": 0.00038187, "MEAN_MOTION_DOT": 0.000221, "MEAN_MOTION_DDOT": 0}, "tle": {"line1": "1 66857U 25281K   25361.50002315  .00022100  00000+0  38187-3 0  9997", "line2": "2 66857  43.0005  33.3008 0001039 277.9766 329.1974 15.50548981  3756"}}, "geometry": {"type": "Point", "coordinates": [54.83983823112835, 21.001632432054233]}}, {"type": "Feature", "properties": {"norad_id": 66858, "name": "STARLINK-35118", "group": "last-30-days", "lat": 22.185515357980112, "lon": 56.4580166265667, "alt_km": 412.07065666318067, "timestamp": "2025-12-27T23:26:36.073775+00:00", "meta": {"OBJECT_NAME": "STARLINK-35118", "OBJECT_ID": "2025-281L", "EPOCH": "2025-12-27T12:00:02.000160", "MEAN_MOTION": 15.50543646, "ECCENTRICITY": 0.0001173, "INCLINATION": 43.0006, "RA_OF_ASC_NODE": 33.2957, "ARG_OF_PERICENTER": 257.47, "MEAN_ANOMALY": 351.6209, "EPHEMERIS_TYPE": 0, "CLASSIFICATION_TYPE": "U", "NORAD_CAT_ID": 66858, "ELEMENT_SET_NO": 999, "REV_AT_EPOCH": 354, "BSTAR": 0.00059438, "MEAN_MOTION_DOT": 0.00034638, "MEAN_MOTION_DDOT": 0}, "tle": {"line1": "1 66858U 25281L   25361.50002315  .00034638  00000+0  59438-3 0  9999", "line2": "2 66858  43.0006  33.2957 0001173 257.4700 351.6209 15.50543646  3541"}}, "geometry": {"type": "Point", "coordinates": [56.4580166265667, 22.185515357980112]}}, {"type": "Feature", "properties": {"norad_id": 66859, "name": "STARLINK-35646", "group": "last-30-days", "lat": 23.35164518328828, "lon": 58.10207517167679, "alt_km": 411.65879495171066, "timestamp": "2025-12-27T23:26:36.073787+00:00", "meta": {"OBJECT_NAME": "STARLINK-35646", "OBJECT_ID": "2025-281M", "EPOCH": "2025-12-27T12:00:02.000160", "MEAN_MOTION": 15.50558029, "ECCENTRICITY": 8.84e-05, "INCLINATION": 43.0004, "RA_OF_ASC_NODE": 33.2908, "ARG_OF_PERICENTER": 275.7728, "MEAN_ANOMALY": 335.2349, "EPHEMERIS_TYPE": 0, "CLASSIFICATION_TYPE": "U", "NORAD_CAT_ID": 66859, "ELEMENT_SET_NO": 999, "REV_AT_EPOCH": 375, "BSTAR": 4.3365e-05, "MEAN_MOTION_DOT": 2.202e-05, "MEAN_MOTION_DDOT": 0}, "tle": {"line1": "1 66859U 25281M   25361.50002315  .00002202  00000+0  43365-4 0  9995", "line2": "2 66859  43.0004  33.2908 0000884 275.7728 335.2349 15.50558029  3754"}}, "geometry": {"type": "Point", "coordinates": [58.10207517167679, 23.35164518328828]}}]}